GLOBAL-31               
1 63027U 25033B   26199.31105371  .00005840  00000+0  16159-3 0  9990
2 63027  58.9971 190.3897 0012330  58.2497 301.9779 15.38348791 79113
GLOBAL-32               
1 64231U 25118B   26199.76753455  .00006737  00000+0  17881-3 0  9992
2 64231  58.9943   4.7277 0016788  63.1887 297.0904 15.39344303 63102
GLOBAL-33               
1 66554U 25267A   26199.81560748  .00005533  00000+0  15515-3 0  9999
2 66554  42.0180 232.1908 0008093 121.4822 238.6809 15.37270618 36913
GLOBAL-34               
1 68098U 26043A   26199.62669039  .00005552  00000+0  17734-3 0  9995
2 68098  42.0218  38.9158 0002278 174.1262 185.9603 15.33147221 20650
