{"fetched_at":"2026-07-19T07:05:11.394Z","source":"https://celestrak.org/NORAD/elements/gp.php?NAME=GLOBAL&FORMAT=JSON","constellation":"blacksky-gen3","records":[{"OBJECT_NAME":"GLOBAL-31","OBJECT_ID":"2025-033B","EPOCH":"2026-07-18T07:27:55.040544","CLASSIFICATION_TYPE":"U","MEAN_MOTION":15.38348791,"ECCENTRICITY":0.001233,"INCLINATION":58.9971,"RA_OF_ASC_NODE":190.3897,"ARG_OF_PERICENTER":58.2497,"MEAN_ANOMALY":301.9779,"EPHEMERIS_TYPE":0,"NORAD_CAT_ID":63027,"ELEMENT_SET_NO":999,"REV_AT_EPOCH":7911,"BSTAR":0.00016158643,"MEAN_MOTION_DOT":0.0000584,"MEAN_MOTION_DDOT":0},{"OBJECT_NAME":"GLOBAL-32","OBJECT_ID":"2025-118B","EPOCH":"2026-07-18T18:25:14.985120","CLASSIFICATION_TYPE":"U","MEAN_MOTION":15.39344303,"ECCENTRICITY":0.0016788,"INCLINATION":58.9943,"RA_OF_ASC_NODE":4.7277,"ARG_OF_PERICENTER":63.1887,"MEAN_ANOMALY":297.0904,"EPHEMERIS_TYPE":0,"NORAD_CAT_ID":64231,"ELEMENT_SET_NO":999,"REV_AT_EPOCH":6310,"BSTAR":0.00017881,"MEAN_MOTION_DOT":0.00006737,"MEAN_MOTION_DDOT":0},{"OBJECT_NAME":"GLOBAL-33","OBJECT_ID":"2025-267A","EPOCH":"2026-07-18T19:34:28.486272","CLASSIFICATION_TYPE":"U","MEAN_MOTION":15.37270618,"ECCENTRICITY":0.0008093,"INCLINATION":42.018,"RA_OF_ASC_NODE":232.1908,"ARG_OF_PERICENTER":121.4822,"MEAN_ANOMALY":238.6809,"EPHEMERIS_TYPE":0,"NORAD_CAT_ID":66554,"ELEMENT_SET_NO":999,"REV_AT_EPOCH":3691,"BSTAR":0.00015515,"MEAN_MOTION_DOT":0.00005533,"MEAN_MOTION_DDOT":0},{"OBJECT_NAME":"GLOBAL-34","OBJECT_ID":"2026-043A","EPOCH":"2026-07-18T15:02:26.049696","CLASSIFICATION_TYPE":"U","MEAN_MOTION":15.33147221,"ECCENTRICITY":0.0002278,"INCLINATION":42.0218,"RA_OF_ASC_NODE":38.9158,"ARG_OF_PERICENTER":174.1262,"MEAN_ANOMALY":185.9603,"EPHEMERIS_TYPE":0,"NORAD_CAT_ID":68098,"ELEMENT_SET_NO":999,"REV_AT_EPOCH":2065,"BSTAR":0.00017734,"MEAN_MOTION_DOT":0.00005552,"MEAN_MOTION_DDOT":0}]}
